FENGYUN 1C DEB          
1 30741U 99025ATB 17345.58126185  .00000045  00000-0  48851-4 0  9995
2 30741  98.9337   9.1468 0007219 131.1508 352.6727 14.11821308555604
